[Satellite]
VERSION=1.1
NAME=NUSTAR
NICKNAME=NUSTAR
TLE1=1 38358U 12031A   20157.99692458  .00000907  00000-0  21025-4 0  9991
TLE2=2 38358   6.0278 352.2557 0011111  85.3602 274.7795 14.88306043434302
STATUS=0
